start=new Date('2022-11-27T00:00:00.000Z').valueOf();
sats=[{"MEAN_ANOMALY":"132.5706","APOAPSIS":"541.068","MEAN_ELEMENT_THEORY":"SGP4","PERIOD":"95.437","LAUNCH_DATE":"2022-09-05","FILE":"3671048","CLASSIFICATION_TYPE":"U","COUNTRY_CODE":"US","GP_ID":"218895462","NORAD_CAT_ID":"53732","SITE":"AFETR","TLE_LINE1":"1 53732U 22107AJ  22330.91667824 -.00043820  00000-0 -27513-2 0  9994","EPOCH":"2022-11-26T22:00:00.999936","TLE_LINE2":"2 53732  53.2161 235.6816 0001949  45.5873 132.5706 15.08848289  1307","ELEMENT_SET_NO":"999","ECCENTRICITY":"0.00019490","REF_FRAME":"TEME","PERIAPSIS":"538.372","MEAN_MOTION_DDOT":"0.0000000000000","MEAN_MOTION_DOT":"-0.00043820","ARG_OF_PERICENTER":"45.5873","OBJECT_NAME":"STARLINK-4661","REV_AT_EPOCH":"130","CENTER_NAME":"EARTH","OBJECT_ID":"2022-107AJ","INCLINATION":"53.2161","BSTAR":"-0.00275130000000","EPHEMERIS_TYPE":"0","RA_OF_ASC_NODE":"235.6816","RCS_SIZE":"LARGE","DECAY_DATE":null,"MEAN_MOTION":"15.08848289","TIME_SYSTEM":"UTC","SEMIMAJOR_AXIS":"6917.855","OBJECT_TYPE":"PAYLOAD"},{"OBJECT_TYPE":"PAYLOAD","SEMIMAJOR_AXIS":"6917.866","TIME_SYSTEM":"UTC","MEAN_MOTION":"15.08844618","DECAY_DATE":null,"RCS_SIZE":"LARGE","RA_OF_ASC_NODE":"235.8425","EPHEMERIS_TYPE":"0","BSTAR":"-0.00195570000000","INCLINATION":"53.2147","OBJECT_ID":"2022-107AK","CENTER_NAME":"EARTH","REV_AT_EPOCH":"130","OBJECT_NAME":"STARLINK-4574","ARG_OF_PERICENTER":"45.5148","MEAN_MOTION_DOT":"-0.00031283","PERIAPSIS":"538.336","REF_FRAME":"TEME","MEAN_MOTION_DDOT":"0.0000000000000","ELEMENT_SET_NO":"999","ECCENTRICITY":"0.00020170","TLE_LINE2":"2 53733  53.2147 235.8425 0002017  45.5148  52.5408 15.08844618  1304","EPOCH":"2022-11-26T22:00:00.999936","TLE_LINE1":"1 53733U 22107AK  22330.91667824 -.00031283  00000-0 -19557-2 0  9994","SITE":"AFETR","NORAD_CAT_ID":"53733","GP_ID":"218895285","COUNTRY_CODE":"US","CLASSIFICATION_TYPE":"U","LAUNCH_DATE":"2022-09-05","FILE":"3671048","APOAPSIS":"541.127","PERIOD":"95.437","MEAN_ELEMENT_THEORY":"SGP4","MEAN_ANOMALY":"52.5408"},{"OBJECT_TYPE":"PAYLOAD","SEMIMAJOR_AXIS":"6917.836","TIME_SYSTEM":"UTC","MEAN_MOTION":"15.08854467","DECAY_DATE":null,"RCS_SIZE":"LARGE","RA_OF_ASC_NODE":"235.7320","EPHEMERIS_TYPE":"0","BSTAR":"-0.00331350000000","INCLINATION":"53.2162","OBJECT_ID":"2022-107AL","CENTER_NAME":"EARTH","REV_AT_EPOCH":"130","OBJECT_NAME":"STARLINK-4616","ARG_OF_PERICENTER":"46.1174","MEAN_MOTION_DOT":"-0.00052659","PERIAPSIS":"538.309","MEAN_MOTION_DDOT":"0.0000000000000","REF_FRAME":"TEME","ECCENTRICITY":"0.00020130","ELEMENT_SET_NO":"999","TLE_LINE2":"2 53734  53.2162 235.7320 0002013  46.1174 106.8146 15.08854467  1302","EPOCH":"2022-11-26T22:00:00.999936","TLE_LINE1":"1 53734U 22107AL  22330.91667824 -.00052659  00000-0 -33135-2 0  9993","SITE":"AFETR","NORAD_CAT_ID":"53734","GP_ID":"218896166","COUNTRY_CODE":"US","CLASSIFICATION_TYPE":"U","FILE":"3671048","LAUNCH_DATE":"2022-09-05","APOAPSIS":"541.094","PERIOD":"95.437","MEAN_ELEMENT_THEORY":"SGP4","MEAN_ANOMALY":"106.8146"},{"RA_OF_ASC_NODE":"245.4218","RCS_SIZE":"LARGE","BSTAR":"-0.00389460000000","EPHEMERIS_TYPE":"0","INCLINATION":"53.2165","CENTER_NAME":"EARTH","OBJECT_ID":"2022-107AM","SEMIMAJOR_AXIS":"6917.817","OBJECT_TYPE":"PAYLOAD","DECAY_DATE":null,"MEAN_MOTION":"15.08860829","TIME_SYSTEM":"UTC","NORAD_CAT_ID":"53735","SITE":"AFETR","LAUNCH_DATE":"2022-09-05","FILE":"3671048","CLASSIFICATION_TYPE":"U","GP_ID":"218895990","COUNTRY_CODE":"US","MEAN_ANOMALY":"215.0858","APOAPSIS":"540.670","PERIOD":"95.436","MEAN_ELEMENT_THEORY":"SGP4","MEAN_MOTION_DOT":"-0.00061774","ARG_OF_PERICENTER":"88.2273","OBJECT_NAME":"STARLINK-4618","REV_AT_EPOCH":"130","TLE_LINE2":"2 53735  53.2165 245.4218 0001428  88.2273 215.0858 15.08860829  1308","ELEMENT_SET_NO":"999","ECCENTRICITY":"0.00014280","PERIAPSIS":"538.694","MEAN_MOTION_DDOT":"0.0000000000000","REF_FRAME":"TEME","EPOCH":"2022-11-26T22:00:00.999936","TLE_LINE1":"1 53735U 22107AM  22330.91667824 -.00061774  00000-0 -38946-2 0  9997"},{"ARG_OF_PERICENTER":"47.9410","MEAN_MOTION_DOT":"-0.00036966","REV_AT_EPOCH":"130","OBJECT_NAME":"STARLINK-4652","ECCENTRICITY":"0.00018890","ELEMENT_SET_NO":"999","TLE_LINE2":"2 53736  53.2159 235.7998 0001889  47.9410  70.1419 15.08849740  1307","MEAN_MOTION_DDOT":"0.0000000000000","PERIAPSIS":"538.409","REF_FRAME":"TEME","EPOCH":"2022-11-26T22:00:00.999936","TLE_LINE1":"1 53736U 22107AN  22330.91667824 -.00036966  00000-0 -23158-2 0  9992","SITE":"AFETR","NORAD_CAT_ID":"53736","LAUNCH_DATE":"2022-09-05","FILE":"3671048","GP_ID":"218895109","COUNTRY_CODE":"US","CLASSIFICATION_TYPE":"U","MEAN_ANOMALY":"70.1419","MEAN_ELEMENT_THEORY":"SGP4","APOAPSIS":"541.022","PERIOD":"95.437","SEMIMAJOR_AXIS":"6917.851","OBJECT_TYPE":"PAYLOAD","DECAY_DATE":null,"TIME_SYSTEM":"UTC","MEAN_MOTION":"15.08849740","RCS_SIZE":"LARGE","RA_OF_ASC_NODE":"235.7998","EPHEMERIS_TYPE":"0","BSTAR":"-0.00231580000000","INCLINATION":"53.2159","CENTER_NAME":"EARTH","OBJECT_ID":"2022-107AN"},{"MEAN_MOTION_DOT":"-0.00036780","ARG_OF_PERICENTER":"81.3667","OBJECT_NAME":"STARLINK-4646","REV_AT_EPOCH":"130","TLE_LINE2":"2 53737  53.2165 245.4610 0001485  81.3667 201.9571 15.08849350  1302","ELEMENT_SET_NO":"999","ECCENTRICITY":"0.00014850","REF_FRAME":"TEME","PERIAPSIS":"538.690","MEAN_MOTION_DDOT":"0.0000000000000","EPOCH":"2022-11-26T22:00:00.999936","TLE_LINE1":"1 53737U 22107AP  22330.91667824 -.00036780  00000-0 -23041-2 0  9998","NORAD_CAT_ID":"53737","SITE":"AFETR","FILE":"3671048","LAUNCH_DATE":"2022-09-05","CLASSIFICATION_TYPE":"U","GP_ID":"218895639","COUNTRY_CODE":"US","MEAN_ANOMALY":"201.9571","PERIOD":"95.437","APOAPSIS":"540.744","MEAN_ELEMENT_THEORY":"SGP4","SEMIMAJOR_AXIS":"6917.852","OBJECT_TYPE":"PAYLOAD","DECAY_DATE":null,"MEAN_MOTION":"15.08849350","TIME_SYSTEM":"UTC","RA_OF_ASC_NODE":"245.4610","RCS_SIZE":"LARGE","BSTAR":"-0.00230410000000","EPHEMERIS_TYPE":"0","INCLINATION":"53.2165","CENTER_NAME":"EARTH","OBJECT_ID":"2022-107AP"},{"CLASSIFICATION_TYPE":"U","GP_ID":"218895815","COUNTRY_CODE":"US","FILE":"3671048","LAUNCH_DATE":"2022-09-05","MEAN_ELEMENT_THEORY":"SGP4","APOAPSIS":"540.860","PERIOD":"95.438","MEAN_ANOMALY":"259.0753","NORAD_CAT_ID":"53738","SITE":"AFETR","EPOCH":"2022-11-26T22:00:00.999936","TLE_LINE1":"1 53738U 22107AQ  22330.91667824 -.00018438  00000-0 -11433-2 0  9991","OBJECT_NAME":"STARLINK-4662","REV_AT_EPOCH":"130","MEAN_MOTION_DOT":"-0.00018438","ARG_OF_PERICENTER":"64.2970","REF_FRAME":"TEME","PERIAPSIS":"538.631","MEAN_MOTION_DDOT":"0.0000000000000","TLE_LINE2":"2 53738  53.2152 245.3809 0001611  64.2970 259.0753 15.08839891  1301","ECCENTRICITY":"0.00016110","ELEMENT_SET_NO":"999","INCLINATION":"53.2152","OBJECT_ID":"2022-107AQ","CENTER_NAME":"EARTH","RA_OF_ASC_NODE":"245.3809","RCS_SIZE":"LARGE","BSTAR":"-0.00114330000000","EPHEMERIS_TYPE":"0","OBJECT_TYPE":"PAYLOAD","SEMIMAJOR_AXIS":"6917.881","MEAN_MOTION":"15.08839891","TIME_SYSTEM":"UTC","DECAY_DATE":null},{"CENTER_NAME":"EARTH","OBJECT_ID":"2022-107AS","INCLINATION":"53.2165","EPHEMERIS_TYPE":"0","BSTAR":"-0.00223200000000","RCS_SIZE":"LARGE","RA_OF_ASC_NODE":"245.4993","DECAY_DATE":null,"TIME_SYSTEM":"UTC","MEAN_MOTION":"15.08854936","SEMIMAJOR_AXIS":"6917.835","OBJECT_TYPE":"PAYLOAD","MEAN_ANOMALY":"179.4113","PERIOD":"95.437","APOAPSIS":"540.832","MEAN_ELEMENT_THEORY":"SGP4","FILE":"3671048","LAUNCH_DATE":"2022-09-05","COUNTRY_CODE":"US","GP_ID":"218896342","CLASSIFICATION_TYPE":"U","SITE":"AFETR","NORAD_CAT_ID":"53740","TLE_LINE1":"1 53740U 22107AS  22330.91667824 -.00035650  00000-0 -22320-2 0  9996","EPOCH":"2022-11-26T22:00:00.999936","ECCENTRICITY":"0.00016370","ELEMENT_SET_NO":"999","TLE_LINE2":"2 53740  53.2165 245.4993 0001637  83.8694 179.4113 15.08854936  1303","PERIAPSIS":"538.567","REF_FRAME":"TEME","MEAN_MOTION_DDOT":"0.0000000000000","ARG_OF_PERICENTER":"83.8694","MEAN_MOTION_DOT":"-0.00035650","REV_AT_EPOCH":"130","OBJECT_NAME":"STARLINK-4607"},{"MEAN_MOTION":"15.25325696","TIME_SYSTEM":"UTC","DECAY_DATE":null,"OBJECT_TYPE":"PAYLOAD","SEMIMAJOR_AXIS":"6867.945","OBJECT_ID":"2022-107AT","CENTER_NAME":"EARTH","INCLINATION":"53.2172","BSTAR":"-0.02571100000000","EPHEMERIS_TYPE":"0","RA_OF_ASC_NODE":"231.1148","RCS_SIZE":"LARGE","TLE_LINE1":"1 53741U 22107AT  22330.91667824 -.00612402  00000-0 -25711-1 0  9999","EPOCH":"2022-11-26T22:00:00.999936","REF_FRAME":"TEME","PERIAPSIS":"488.738","MEAN_MOTION_DDOT":"0.0000000000000","TLE_LINE2":"2 53741  53.2172 231.1148 0001561  50.0730 314.1486 15.25325696  1305","ECCENTRICITY":"0.00015610","ELEMENT_SET_NO":"999","OBJECT_NAME":"STARLINK-4614","REV_AT_EPOCH":"130","MEAN_MOTION_DOT":"-0.00612402","ARG_OF_PERICENTER":"50.0730","MEAN_ELEMENT_THEORY":"SGP4","APOAPSIS":"490.882","PERIOD":"94.406","MEAN_ANOMALY":"314.1486","CLASSIFICATION_TYPE":"U","COUNTRY_CODE":"US","GP_ID":"218895463","FILE":"3671048","LAUNCH_DATE":"2022-09-05","NORAD_CAT_ID":"53741","SITE":"AFETR"},{"EPOCH":"2022-11-26T22:00:00.999936","TLE_LINE1":"1 53742U 22107AU  22330.91667824 -.00038292  00000-0 -24001-2 0  9991","OBJECT_NAME":"STARLINK-4637","REV_AT_EPOCH":"130","MEAN_MOTION_DOT":"-0.00038292","ARG_OF_PERICENTER":"74.6778","PERIAPSIS":"538.696","REF_FRAME":"TEME","MEAN_MOTION_DDOT":"0.0000000000000","TLE_LINE2":"2 53742  53.2152 245.5390 0001479  74.6778 168.5712 15.08848604  1307","ECCENTRICITY":"0.00014790","ELEMENT_SET_NO":"999","CLASSIFICATION_TYPE":"U","COUNTRY_CODE":"US","GP_ID":"218895286","LAUNCH_DATE":"2022-09-05","FILE":"3671048","APOAPSIS":"540.742","MEAN_ELEMENT_THEORY":"SGP4","PERIOD":"95.437","MEAN_ANOMALY":"168.5712","NORAD_CAT_ID":"53742","SITE":"AFETR","OBJECT_TYPE":"PAYLOAD","SEMIMAJOR_AXIS":"6917.854","MEAN_MOTION":"15.08848604","TIME_SYSTEM":"UTC","DECAY_DATE":null,"INCLINATION":"53.2152","OBJECT_ID":"2022-107AU","CENTER_NAME":"EARTH","RA_OF_ASC_NODE":"245.5390","RCS_SIZE":"LARGE","BSTAR":"-0.00240010000000","EPHEMERIS_TYPE":"0"}];
